COSMOS 2433 (720)       
1 32275U 07052A   25103.07526860 -.00000048  00000+0  00000+0 0  9999
2 32275  65.8065 330.3731 0001034 272.9125  87.1339  2.13104183135897
COSMOS 2432 (719)       
1 32276U 07052B   25103.40307575 -.00000048  00000+0  00000+0 0  9997
2 32276  65.8214 330.4815 0010021 336.4725 220.3660  2.13103353135926
COSMOS 2434 (721)       
1 32393U 07065A   25100.49945264 -.00000026  00000+0  00000+0 0  9996
2 32393  64.3154 206.5153 0002447  70.3916   5.1829  2.13101429134556
COSMOS 2436 (723)       
1 32395U 07065C   25101.25965161 -.00000016  00000+0  00000+0 0  9990
2 32395  64.3240 206.5573 0016778   2.1461  70.7639  2.13100346134521
COSMOS 2456 (730)       
1 36111U 09070A   25103.47879647  .00000016  00000+0  00000+0 0  9996
2 36111  64.7650  85.6586 0006432 309.1633  47.5554  2.13103766119268
COSMOS 2457 (733)       
1 36112U 09070B   25104.20460287  .00000016  00000+0  00000+0 0  9995
2 36112  64.7504  85.4862 0002083 196.6892 128.2146  2.13101206119324
COSMOS 2460 (732)       
1 36402U 10007C   25103.79090831 -.00000047  00000+0  00000+0 0  9991
2 36402  65.6564 328.9612 0002245  44.7409 318.7097  2.13106325117581
COSMOS 2476 (744)       
1 37867U 11064A   25103.16194736  .00000021  00000+0  00000+0 0  9992
2 37867  65.0316  87.4151 0024383 242.2303 141.8069  2.13101613104604
COSMOS 2477 (745)       
1 37868U 11064B   25102.71680922  .00000023  00000+0  00000+0 0  9992
2 37868  65.0382  87.5057 0021618 243.8591 338.3195  2.13103085104583
COSMOS 2475 (743)       
1 37869U 11064C   25102.47969660  .00000024  00000+0  00000+0 0  9996
2 37869  65.0450  87.5312 0027234 256.1638 101.1371  2.13101836104587
COSMOS 2485 (747)       
1 39155U 13019A   25104.00889777  .00000022  00000+0  00000+0 0  9997
2 39155  65.1867  88.0327 0024628 238.1764 121.5729  2.13104578 93133
COSMOS 2492 (754)       
1 39620U 14012A   25103.96572376 -.00000046  00000+0  00000+0 0  9993
2 39620  65.5363 328.4884 0012619 330.1808  29.8031  2.13103338 86099
COSMOS 2500 (755)       
1 40001U 14032A   25102.73333921 -.00000047  00000+0  00000+0 0  9996
2 40001  65.4730 328.3116 0004900 190.6934 169.3531  2.13106109 84284
COSMOS 2501 (702K)      
1 40315U 14075A   25102.98987553  .00000008  00000+0  00000+0 0  9990
2 40315  63.6152 205.2688 0020561 207.7065 152.2011  2.13101475 80688
COSMOS 2514 (751)       
1 41330U 16008A   25103.91193429 -.00000046  00000+0  00000+0 0  9994
2 41330  65.2647 327.7048 0008649 205.0619 154.9508  2.13102938 71474
COSMOS 2522 (752)       
1 42939U 17055A   25103.75096680  .00000015  00000+0  00000+0 0  9991
2 42939  64.0768 206.5058 0008229 234.5077 125.4349  2.13101829 58823
COSMOS 2527 (756)       
1 43508U 18053A   25103.71082938  .00000022  00000+0  00000+0 0  9998
2 43508  65.3454  88.2573 0009350 247.2261 112.6652  2.13102325 53126
COSMOS 2529 (757)       
1 43687U 18086A   25103.80909033  .00000015  00000+0  00000+0 0  9998
2 43687  64.2927 207.0974 0009320 257.0665 102.8478  2.13102107 50130
COSMOS 2534 (758)       
1 44299U 19030A   25102.95460066  .00000006  00000+0  00000+0 0  9991
2 44299  64.3659 207.1079 0011023 280.6616 278.0123  2.13102459 45756
COSMOS 2544 (759)       
1 44850U 19088A   25103.65516121  .00000022  00000+0  00000+0 0  9997
2 44850  65.3326  88.0905 0015360 262.2569  97.5587  2.13102078 41566
COSMOS 2545 (760)       
1 45358U 20018A   25102.91335140 -.00000048  00000+0  00000+0 0  9993
2 45358  64.6031 327.5047 0007255 248.4081 111.5699  2.13102649 39496
COSMOS 2547 (705K)      
1 46805U 20075A   25101.22205148 -.00000017  00000+0  00000+0 0  9997
2 46805  64.5959 206.8963 0007457 236.3937 123.5384  2.13100377 34707
COSMOS 2557 (706K)      
1 52984U 22075A   25102.32771313 -.00000050  00000+0  00000+0 0  9995
2 52984  64.5382 329.6280 0011065 285.2339  74.7008  2.13102089 21536
COSMOS 2559 (707K)      
1 54031U 22130A   25091.00919060 -.00000051  00000+0  00000+0 0  9998
2 54031  64.5157 330.1326 0005192 225.6156 134.3984  2.13101195 19268
COSMOS 2564 (761)       
1 54377U 22161A   25102.92988970  .00000006  00000+0  00000+0 0  9994
2 54377  64.7376 206.9981 0009875 216.2107 143.7357  2.13102036 18461
COSMOS 2569 (703K)      
1 57517U 23114A   25103.41407509  .00000020  00000+0  00000+0 0  9997
2 57517  65.0635  87.1398 0012861 294.8494  65.0063  2.13103977 13104
COSMOS 2584 (704K)      
1 63130U 25042A   25102.36207832  .00000024  00000+0  00000+0 0  9991
2 63130  64.8442  87.4747 0007627 237.2279 122.6925  2.13103606   867
